{"type":"FeatureCollection","licence":"Data © OpenStreetMap contributors, ODbL 1.0. http://osm.org/copyright","features":[{"type":"Feature","properties":{"place_id":33022402,"osm_type":"node","osm_id":4522000994,"place_rank":30,"category":"amenity","type":"restaurant","importance":5.48096437017932e-05,"addresstype":"amenity","name":"mie lampung","display_name":"mie lampung, Jalan Ikan Tongkol, Teluk Betung, Bandar Lampung, Lampung, 34223, Indonesia"},"bbox":[105.2637059,-5.4478639,105.2638059,-5.4477639],"geometry":{"type":"Point","coordinates":[105.2637559,-5.4478139]}}]}